STARLINK-37537          
1 69420U 26126A   26178.14745086  .00214012  00000+0  14002-2 0  9995
2 69420  97.2826  38.6125 0001878 139.3549 220.7857 15.75187480  4315
STARLINK-37585          
1 69421U 26126B   26178.13687232  .00198709  00000+0  13019-2 0  9994
2 69421  97.2825  38.6273 0002688  79.1076 281.0491 15.75196543  4319
STARLINK-37573          
1 69422U 26126C   26178.15062720  .00299563  00000+0  19406-2 0  9992
2 69422  97.2837  38.6086 0002012 137.6248 222.5173 15.75178458  4319
STARLINK-37820          
1 69423U 26126D   26178.16846092  .00324049  00000+0  16964-2 0  9990
2 69423  97.2838  38.7387 0003086  50.3033 309.8507 15.79940165  4328
STARLINK-37822          
1 69424U 26126E   26178.18169259  .00098568  00000+0  65374-3 0  9990
2 69424  97.2842  38.7213 0001940  69.5231 290.6242 15.75202025  4326
STARLINK-37836          
1 69425U 26126F   26177.85177097  .00391436  00000+0  20172-2 0  9999
2 69425  97.2832  38.4045 0000934 127.6740 232.4612 15.80112558  4275
STARLINK-37850          
1 69426U 26126G   26178.10503758 -.00047236  00000+0 -26267-3 0  9996
2 69426  97.2847  38.6720 0002924  12.8622 347.2720 15.79474252  4364
STARLINK-37823          
1 69427U 26126H   26178.06098747  .00306541  00000+0  19782-2 0  9997
2 69427  97.2843  38.5786 0001323  70.6075 289.5334 15.75247880  4302
STARLINK-37834          
1 69428U 26126J   26178.13298449  .00243237  00000+0  15817-2 0  9994
2 69428  97.2849  38.6346 0000965  89.1202 271.0174 15.75247200  4315
STARLINK-37857          
1 69429U 26126K   26178.18522070  .00120398  00000+0  79614-3 0  9998
2 69429  97.2844  38.7164 0001773  77.7223 282.4241 15.75206935  4326
STARLINK-37866          
1 69430U 26126L   26178.25002315  .00007156  00000+0  39614-4 0  9996
2 69430  97.2841  38.8285 0001730  75.1423  33.7606 15.79934577  4390
STARLINK-37555          
1 69431U 26126M   26178.25002315 -.00099873  00000+0 -67542-3 0  9996
2 69431  97.2848  38.8138 0001537  90.6399 344.7158 15.75228379  4393
STARLINK-37870          
1 69432U 26126N   26178.25002315 -.00098407  00000+0 -66556-3 0  9993
2 69432  97.2843  38.8222 0001650  99.6690 355.6895 15.75221693  4348
STARLINK-37872          
1 69433U 26126P   26178.16702115  .00349273  00000+0  18232-2 0  9994
2 69433  97.2836  38.7410 0003850  50.3131 309.8475 15.79936002  4321
STARLINK-37815          
1 69434U 26126Q   26178.07721546  .00253201  00000+0  16423-2 0  9999
2 69434  97.2829  38.5564 0000699 288.5961  71.5228 15.75278546  4301
STARLINK-37801          
1 69435U 26126R   26178.12663148  .00195230  00000+0  12806-2 0  9997
2 69435  97.2843  38.6437 0001723 127.2342 232.9080 15.75180415  4361
STARLINK-37800          
1 69436U 26126S   26178.12875533  .00148309  00000+0  97778-3 0  9998
2 69436  97.2836  38.6396 0003261  95.0882 265.0756 15.75191825  4317
STARLINK-37792          
1 69437U 26126T   26178.16596423  .07530755  82897-1  41365-1 0  9993
2 69437  97.2835  38.7424 0026238 316.8384  43.0829 15.84897943  4375
STARLINK-37783          
1 69438U 26126U   26178.10259253  .00333598  00000+0  17389-2 0  9998
2 69438  97.2839  38.6756 0001056  60.3516 299.7857 15.80010974  4363
STARLINK-37771          
1 69439U 26126V   26178.20851062  .00172740  00000+0  11327-2 0  9992
2 69439  97.2835  38.6834 0001572  74.8103 285.3336 15.75250813  4323
STARLINK-37747          
1 69440U 26126W   26178.25002315 -.00117428  00000+0 -79549-3 0  9993
2 69440  97.2838  38.8035 0001460  93.8998 317.4524 15.75240901  4347
STARLINK-37629          
1 69443U 26127A   26178.26722935  .00145388  00000+0  93444-3 0  9999
2 69443  53.1586 212.3172 0001100 105.0279 255.0864 15.75286650  2995
STARLINK-37509          
1 69444U 26127B   26178.26301991  .00125589  00000+0  81009-3 0  9990
2 69444  53.1592 212.2888 0001047  96.6320 263.4820 15.75274107  2997
STARLINK-37641          
1 69445U 26127C   26178.25002315 -.00081480  00000+0 -53159-3 0  9996
2 69445  53.1585 212.1922 0001148  89.7148 275.7574 15.75277164  4261
STARLINK-37522          
1 69446U 26127D   26178.26269227  .00118956  00000+0  76814-3 0  9995
2 69446  53.1592 212.2868 0001271  88.1993 271.9173 15.75273738  2992
STARLINK-37640          
1 69447U 26127E   26178.25002315 -.00009651  00000+0 -58933-4 0  9994
2 69447  53.1592 212.0331 0001231  62.5904  20.1698 15.75210076  4264
STARLINK-37572          
1 69448U 26127F   26178.25394112  .00164881  00000+0  10564-2 0  9995
2 69448  53.1591 212.2275 0001140 108.0662 252.0483 15.75293357  2998
STARLINK-37643          
1 69449U 26127G   26178.25848049  .00133189  00000+0  85799-3 0  9999
2 69449  53.1594 212.2571 0001362 109.7051 250.4117 15.75276876  2990
STARLINK-37601          
1 69450U 26127H   26178.25815343  .00094834  00000+0  61523-3 0  9994
2 69450  53.1595 212.2555 0001104 101.8197 258.2947 15.75264161  2994
