OBJECT_NAME,OBJECT_ID,EPOCH,MEAN_MOTION,ECCENTRICITY,INCLINATION,RA_OF_ASC_NODE,ARG_OF_PERICENTER,MEAN_ANOMALY,EPHEMERIS_TYPE,CLASSIFICATION_TYPE,NORAD_CAT_ID,ELEMENT_SET_NO,REV_AT_EPOCH,BSTAR,MEAN_MOTION_DOT,MEAN_MOTION_DDOT
STARLINK-37537,2026-126A,2026-06-27T03:32:19.754304,15.75187480,.00018784,97.2826,38.6125,139.3549,220.7857,0,U,69420,999,431,.1400171E-2,.214012E-2,0
STARLINK-37585,2026-126B,2026-06-27T03:17:05.768448,15.75196543,.00026885,97.2825,38.6273,79.1076,281.0491,0,U,69421,999,431,.1301871E-2,.198709E-2,0
STARLINK-37573,2026-126C,2026-06-27T03:36:54.190080,15.75178458,.00020126,97.2837,38.6086,137.6248,222.5173,0,U,69422,999,431,.19405947E-2,.299563E-2,0
STARLINK-37820,2026-126D,2026-06-27T04:02:35.023488,15.79940165,.00030861,97.2838,38.7387,50.3033,309.8507,0,U,69423,999,432,.16963612E-2,.324049E-2,0
STARLINK-37822,2026-126E,2026-06-27T04:21:38.239776,15.75202025,.00019406,97.2842,38.7213,69.5231,290.6242,0,U,69424,999,432,.6537445E-3,.98568E-3,0
STARLINK-37836,2026-126F,2026-06-26T20:26:33.011808,15.80112558,.0000934,97.2832,38.4045,127.6740,232.4612,0,U,69425,999,427,.20172E-2,.391436E-2,0
STARLINK-37850,2026-126G,2026-06-27T02:31:15.246912,15.79474252,.00029248,97.2847,38.6720,12.8622,347.2720,0,U,69426,999,436,-.2626689E-3,-.47236E-3,0
STARLINK-37823,2026-126H,2026-06-27T01:27:49.317408,15.75247880,.00013234,97.2843,38.5786,70.6075,289.5334,0,U,69427,999,430,.1978197E-2,.306541E-2,0
STARLINK-37834,2026-126J,2026-06-27T03:11:29.859936,15.75247200,.00009653,97.2849,38.6346,89.1202,271.0174,0,U,69428,999,431,.15817023E-2,.243237E-2,0
STARLINK-37857,2026-126K,2026-06-27T04:26:43.068480,15.75206935,.00017733,97.2844,38.7164,77.7223,282.4241,0,U,69429,999,432,.79614027E-3,.120398E-2,0
STARLINK-37866,2026-126L,2026-06-27T06:00:02.000160,15.79934577,.000173,97.2841,38.8285,75.1423,33.7606,0,U,69430,999,439,.39613756E-4,.7156E-4,0
STARLINK-37555,2026-126M,2026-06-27T06:00:02.000160,15.75228379,.00015371,97.2848,38.8138,90.6399,344.7158,0,U,69431,999,439,-.67541805E-3,-.99873E-3,0
STARLINK-37870,2026-126N,2026-06-27T06:00:02.000160,15.75221693,.00016509,97.2843,38.8222,99.6690,355.6895,0,U,69432,999,434,-.66556148E-3,-.98407E-3,0
STARLINK-37872,2026-126P,2026-06-27T04:00:30.627360,15.79936002,.00038506,97.2836,38.7410,50.3131,309.8475,0,U,69433,999,432,.18231923E-2,.349273E-2,0
STARLINK-37815,2026-126Q,2026-06-27T01:51:11.415744,15.75278546,.0000699,97.2829,38.5564,288.5961,71.5228,0,U,69434,999,430,.16422806E-2,.253201E-2,0
STARLINK-37801,2026-126R,2026-06-27T03:02:20.959872,15.75180415,.00017237,97.2843,38.6437,127.2342,232.9080,0,U,69435,999,436,.12805922E-2,.19523E-2,0
STARLINK-37800,2026-126S,2026-06-27T03:05:24.460512,15.75191825,.00032617,97.2836,38.6396,95.0882,265.0756,0,U,69436,999,431,.97777534E-3,.148309E-2,0
STARLINK-37792,2026-126T,2026-06-27T03:58:59.309472,15.84897943,.00262389,97.2835,38.7424,316.8384,43.0829,0,U,69437,999,437,.4136546E-1,.7530755E-1,.82897025E-1
STARLINK-37783,2026-126U,2026-06-27T02:27:43.994592,15.80010974,.00010565,97.2839,38.6756,60.3516,299.7857,0,U,69438,999,436,.17389035E-2,.333598E-2,0
STARLINK-37771,2026-126V,2026-06-27T05:00:15.317568,15.75250813,.00015722,97.2835,38.6834,74.8103,285.3336,0,U,69439,999,432,.11327351E-2,.17274E-2,0
STARLINK-37747,2026-126W,2026-06-27T06:00:02.000160,15.75240901,.00014605,97.2838,38.8035,93.8998,317.4524,0,U,69440,999,434,-.79549233E-3,-.117428E-2,0
STARLINK-37629,2026-127A,2026-06-27T06:24:48.615840,15.75286650,.00011006,53.1586,212.3172,105.0279,255.0864,0,U,69443,999,299,.93444236E-3,.145388E-2,0
STARLINK-37509,2026-127B,2026-06-27T06:18:44.920224,15.75274107,.00010473,53.1592,212.2888,96.6320,263.4820,0,U,69444,999,299,.8100934E-3,.125589E-2,0
STARLINK-37641,2026-127C,2026-06-27T06:00:02.000160,15.75277164,.00011481,53.1585,212.1922,89.7148,275.7574,0,U,69445,999,426,-.53158821E-3,-.8148E-3,0
STARLINK-37522,2026-127D,2026-06-27T06:18:16.612128,15.75273738,.00012718,53.1592,212.2868,88.1993,271.9173,0,U,69446,999,299,.76814266E-3,.118956E-2,0
STARLINK-37640,2026-127E,2026-06-27T06:00:02.000160,15.75210076,.00012317,53.1592,212.0331,62.5904,20.1698,0,U,69447,999,426,-.58933363E-4,-.9651E-4,0
STARLINK-37572,2026-127F,2026-06-27T06:05:40.512768,15.75293357,.00011404,53.1591,212.2275,108.0662,252.0483,0,U,69448,999,299,.10564174E-2,.164881E-2,0
STARLINK-37643,2026-127G,2026-06-27T06:12:12.714336,15.75276876,.00013629,53.1594,212.2571,109.7051,250.4117,0,U,69449,999,299,.85798617E-3,.133189E-2,0
STARLINK-37601,2026-127H,2026-06-27T06:11:44.456352,15.75264161,.00011042,53.1595,212.2555,101.8197,258.2947,0,U,69450,999,299,.61522501E-3,.94834E-3,0
